SPOT 6                  
1 38755U 12047A   26186.65182019  .00000914  00000+0  20663-3 0  9990
2 38755  98.2107 253.7444 0001201  76.8411 283.2922 14.58536417735745
SPOT 7                  
1 40053U 14034A   26186.60503013  .00000803  00000+0  17300-3 0  9999
2 40053  98.0615 248.6220 0001491  96.9514 263.1857 14.60976237639821
