{"fetched_at":"2026-07-06T08:47:22.891Z","source":"https://celestrak.org/NORAD/elements/gp.php?NAME=SPOT&FORMAT=JSON","constellation":"spot","records":[{"OBJECT_NAME":"SPOT 6","OBJECT_ID":"2012-047A","EPOCH":"2026-07-05T15:38:37.264416","CLASSIFICATION_TYPE":"U","MEAN_MOTION":14.58536417,"ECCENTRICITY":0.00012015,"INCLINATION":98.2107,"RA_OF_ASC_NODE":253.7444,"ARG_OF_PERICENTER":76.8411,"MEAN_ANOMALY":283.2922,"EPHEMERIS_TYPE":0,"NORAD_CAT_ID":38755,"ELEMENT_SET_NO":999,"REV_AT_EPOCH":73574,"BSTAR":0.00020663472,"MEAN_MOTION_DOT":0.00000914,"MEAN_MOTION_DDOT":0},{"OBJECT_NAME":"SPOT 7","OBJECT_ID":"2014-034A","EPOCH":"2026-07-05T14:31:14.603232","CLASSIFICATION_TYPE":"U","MEAN_MOTION":14.60976237,"ECCENTRICITY":0.00014916,"INCLINATION":98.0615,"RA_OF_ASC_NODE":248.622,"ARG_OF_PERICENTER":96.9514,"MEAN_ANOMALY":263.1857,"EPHEMERIS_TYPE":0,"NORAD_CAT_ID":40053,"ELEMENT_SET_NO":999,"REV_AT_EPOCH":63982,"BSTAR":0.00017299629,"MEAN_MOTION_DOT":0.00000803,"MEAN_MOTION_DDOT":0}]}
